{"type": "FeatureCollection", "features": [ {"type": "Feature", "properties": {"norad_id": 67008, "name": "STARLINK-36163", "group": "last-30-days", "lat": -31.898746205409577, "lon": 139.4755197793353, "alt_km": 290.4273204214842, "timestamp": "2025-12-18T17:50:13.702725+00:00", "meta": {"OBJECT_NAME": "STARLINK-36163", "OBJECT_ID": "2025-293F", "EPOCH": "2025-12-17T20:00:01.999872", "MEAN_MOTION": 15.97384734, "ECCENTRICITY": 0.00040991, "INCLINATION": 69.9938, "RA_OF_ASC_NODE": 309.0271, "ARG_OF_PERICENTER": 268.4865, "MEAN_ANOMALY": 117.8948, "EPHEMERIS_TYPE": 0, "CLASSIFICATION_TYPE": "U", "NORAD_CAT_ID": 67008, "ELEMENT_SET_NO": 999, "REV_AT_EPOCH": 238, "BSTAR": -0.0022040941, "MEAN_MOTION_DOT": -0.00974922, "MEAN_MOTION_DDOT": 0.00030494444}, "tle": {"line1": "1 67008U 25293F   25351.83335648 -.00974922  30494-3 -22041-2 0  9997", "line2": "2 67008  69.9938 309.0271 0004099 268.4865 117.8948 15.97384734  2382"}}, "geometry": {"type": "Point", "coordinates": [139.4755197793353, -31.898746205409577]}}, {"type": "Feature", "properties": {"norad_id": 67009, "name": "STARLINK-36118", "group": "last-30-days", "lat": -33.94523333548709, "lon": 140.56226177265498, "alt_km": 290.0996537228848, "timestamp": "2025-12-18T17:50:13.702735+00:00", "meta": {"OBJECT_NAME": "STARLINK-36118", "OBJECT_ID": "2025-293G", "EPOCH": "2025-12-17T20:00:01.999872", "MEAN_MOTION": 15.97466435, "ECCENTRICITY": 0.00041241, "INCLINATION": 69.9937, "RA_OF_ASC_NODE": 309.0248, "ARG_OF_PERICENTER": 265.8228, "MEAN_ANOMALY": 122.516, "EPHEMERIS_TYPE": 0, "CLASSIFICATION_TYPE": "U", "NORAD_CAT_ID": 67009, "ELEMENT_SET_NO": 999, "REV_AT_EPOCH": 238, "BSTAR": -0.0021807745, "MEAN_MOTION_DOT": -0.00969011, "MEAN_MOTION_DDOT": 0.00030180511}, "tle": {"line1": "1 67009U 25293G   25351.83335648 -.00969011  30181-3 -21808-2 0  9994", "line2": "2 67009  69.9937 309.0248 0004124 265.8228 122.5160 15.97466435  2387"}}, "geometry": {"type": "Point", "coordinates": [140.56226177265498, -33.94523333548709]}}, {"type": "Feature", "properties": {"norad_id": 67010, "name": "STARLINK-36189", "group": "last-30-days", "lat": -37.543913737072344, "lon": 142.62228513567035, "alt_km": 289.7570824463828, "timestamp": "2025-12-18T17:50:13.702746+00:00", "meta": {"OBJECT_NAME": "STARLINK-36189", "OBJECT_ID": "2025-293H", "EPOCH": "2025-12-17T20:00:01.999872", "MEAN_MOTION": 15.97618262, "ECCENTRICITY": 0.00040963, "INCLINATION": 69.9937, "RA_OF_ASC_NODE": 309.0206, "ARG_OF_PERICENTER": 265.9646, "MEAN_ANOMALY": 125.8501, "EPHEMERIS_TYPE": 0, "CLASSIFICATION_TYPE": "U", "NORAD_CAT_ID": 67010, "ELEMENT_SET_NO": 999, "REV_AT_EPOCH": 238, "BSTAR": -0.0021633066, "MEAN_MOTION_DOT": -0.00969309, "MEAN_MOTION_DDOT": 0.00030247187}, "tle": {"line1": "1 67010U 25293H   25351.83335648 -.00969309  30247-3 -21633-2 0  9995", "line2": "2 67010  69.9937 309.0206 0004096 265.9646 125.8501 15.97618262  2388"}}, "geometry": {"type": "Point", "coordinates": [142.62228513567035, -37.543913737072344]}}, {"type": "Feature", "properties": {"norad_id": 67011, "name": "STARLINK-36167", "group": "last-30-days", "lat": -35.49017577912691, "lon": 141.42131962483475, "alt_km": 289.99837144260255, "timestamp": "2025-12-18T17:50:13.702756+00:00", "meta": {"OBJECT_NAME": "STARLINK-36167", "OBJECT_ID": "2025-293J", "EPOCH": "2025-12-17T20:00:01.999872", "MEAN_MOTION": 15.97527007, "ECCENTRICITY": 0.00041269, "INCLINATION": 69.9933, "RA_OF_ASC_NODE": 309.0226, "ARG_OF_PERICENTER": 267.6668, "MEAN_ANOMALY": 122.1597, "EPHEMERIS_TYPE": 0, "CLASSIFICATION_TYPE": "U", "NORAD_CAT_ID": 67011, "ELEMENT_SET_NO": 999, "REV_AT_EPOCH": 238, "BSTAR": -0.0021610015, "MEAN_MOTION_DOT": -0.00963479, "MEAN_MOTION_DDOT": 0.00029882662}, "tle": {"line1": "1 67011U 25293J   25351.83335648 -.00963479  29883-3 -21610-2 0  9997", "line2": "2 67011  69.9933 309.0226 0004126 267.6668 122.1597 15.97527007  2385"}}, "geometry": {"type": "Point", "coordinates": [141.42131962483475, -35.49017577912691]}}, {"type": "Feature", "properties": {"norad_id": 67012, "name": "STARLINK-36175", "group": "last-30-days", "lat": -39.17829951536726, "lon": 143.63207694115954, "alt_km": 289.6542056237686, "timestamp": "2025-12-18T17:50:13.702766+00:00", "meta": {"OBJECT_NAME": "STARLINK-36175", "OBJECT_ID": "2025-293K", "EPOCH": "2025-12-17T20:00:01.999872", "MEAN_MOTION": 15.97689454, "ECCENTRICITY": 0.00041397, "INCLINATION": 69.9934, "RA_OF_ASC_NODE": 309.0186, "ARG_OF_PERICENTER": 268.0112, "MEAN_ANOMALY": 125.4057, "EPHEMERIS_TYPE": 0, "CLASSIFICATION_TYPE": "U", "NORAD_CAT_ID": 67012, "ELEMENT_SET_NO": 999, "REV_AT_EPOCH": 238, "BSTAR": -0.0021669699, "MEAN_MOTION_DOT": -0.00974747, "MEAN_MOTION_DDOT": 0.00030584746}, "tle": {"line1": "1 67012U 25293K   25351.83335648 -.00974747  30585-3 -21670-2 0  9995", "line2": "2 67012  69.9934 309.0186 0004139 268.0112 125.4057 15.97689454  2387"}}, "geometry": {"type": "Point", "coordinates": [143.63207694115954, -39.17829951536726]}}, {"type": "Feature", "properties": {"norad_id": 67013, "name": "STARLINK-35856", "group": "last-30-days", "lat": -41.19030710236651, "lon": 144.9501065655595, "alt_km": 289.39950741094344, "timestamp": "2025-12-18T17:50:13.702776+00:00", "meta": {"OBJECT_NAME": "STARLINK-35856", "OBJECT_ID": "2025-293L", "EPOCH": "2025-12-17T20:00:01.999872", "MEAN_MOTION": 15.97773827, "ECCENTRICITY": 0.00040548, "INCLINATION": 69.9932, "RA_OF_ASC_NODE": 309.0161, "ARG_OF_PERICENTER": 266.1783, "MEAN_ANOMALY": 129.1993, "EPHEMERIS_TYPE": 0, "CLASSIFICATION_TYPE": "U", "NORAD_CAT_ID": 67013, "ELEMENT_SET_NO": 999, "REV_AT_EPOCH": 238, "BSTAR": -0.0021459581, "MEAN_MOTION_DOT": -0.00969807, "MEAN_MOTION_DDOT": 0.00030326859}, "tle": {"line1": "1 67013U 25293L   25351.83335648 -.00969807  30327-3 -21460-2 0  9998", "line2": "2 67013  69.9932 309.0161 0004054 266.1783 129.1993 15.97773827  2386"}}, "geometry": {"type": "Point", "coordinates": [144.9501065655595, -41.19030710236651]}}, {"type": "Feature", "properties": {"norad_id": 67014, "name": "STARLINK-36207", "group": "last-30-days", "lat": -43.02033764544074, "lon": 146.23071138296484, "alt_km": 289.2777519447736, "timestamp": "2025-12-18T17:50:13.702786+00:00", "meta": {"OBJECT_NAME": "STARLINK-36207", "OBJECT_ID": "2025-293M", "EPOCH": "2025-12-17T20:00:01.999872", "MEAN_MOTION": 15.9786493, "ECCENTRICITY": 0.000413, "INCLINATION": 69.9936, "RA_OF_ASC_NODE": 309.0139, "ARG_OF_PERICENTER": 268.0015, "MEAN_ANOMALY": 129.2032, "EPHEMERIS_TYPE": 0, "CLASSIFICATION_TYPE": "U", "NORAD_CAT_ID": 67014, "ELEMENT_SET_NO": 999, "REV_AT_EPOCH": 238, "BSTAR": -0.002181423, "MEAN_MOTION_DOT": -0.00990673, "MEAN_MOTION_DDOT": 0.00031573426}, "tle": {"line1": "1 67014U 25293M   25351.83335648 -.00990673  31573-3 -21814-2 0  9991", "line2": "2 67014  69.9936 309.0139 0004130 268.0015 129.2032 15.97864930  2381"}}, "geometry": {"type": "Point", "coordinates": [146.23071138296484, -43.02033764544074]}}, {"type": "Feature", "properties": {"norad_id": 67015, "name": "STARLINK-36093", "group": "last-30-days", "lat": -46.61080503059524, "lon": 149.01988919982696, "alt_km": 288.8758360031552, "timestamp": "2025-12-18T17:50:13.702800+00:00", "meta": {"OBJECT_NAME": "STARLINK-36093", "OBJECT_ID": "2025-293N", "EPOCH": "2025-12-17T20:00:01.999872", "MEAN_MOTION": 15.98028769, "ECCENTRICITY": 0.00041429, "INCLINATION": 69.9934, "RA_OF_ASC_NODE": 309.0096, "ARG_OF_PERICENTER": 265.7927, "MEAN_ANOMALY": 135.0426, "EPHEMERIS_TYPE": 0, "CLASSIFICATION_TYPE": "U", "NORAD_CAT_ID": 67015, "ELEMENT_SET_NO": 999, "REV_AT_EPOCH": 238, "BSTAR": -0.0022114754, "MEAN_MOTION_DOT": -0.01013288, "MEAN_MOTION_DDOT": 0.00032974933}, "tle": {"line1": "1 67015U 25293N   25351.83335648 -.01013288  32975-3 -22115-2 0  9993", "line2": "2 67015  69.9934 309.0096 0004142 265.7927 135.0426 15.98028769  2386"}}, "geometry": {"type": "Point", "coordinates": [149.01988919982696, -46.61080503059524]}}, {"type": "Feature", "properties": {"norad_id": 67016, "name": "STARLINK-36120", "group": "last-30-days", "lat": -44.703718517759434, "lon": 147.4887785429195, "alt_km": 289.12537943368534, "timestamp": "2025-12-18T17:50:13.702810+00:00", "meta": {"OBJECT_NAME": "STARLINK-36120", "OBJECT_ID": "2025-293P", "EPOCH": "2025-12-17T20:00:01.999872", "MEAN_MOTION": 15.97945099, "ECCENTRICITY": 0.00041175, "INCLINATION": 69.9934, "RA_OF_ASC_NODE": 309.0119, "ARG_OF_PERICENTER": 266.5433, "MEAN_ANOMALY": 132.3706, "EPHEMERIS_TYPE": 0, "CLASSIFICATION_TYPE": "U", "NORAD_CAT_ID": 67016, "ELEMENT_SET_NO": 999, "REV_AT_EPOCH": 238, "BSTAR": -0.0022172473, "MEAN_MOTION_DOT": -0.01011241, "MEAN_MOTION_DDOT": 0.00032822323}, "tle": {"line1": "1 67016U 25293P   25351.83335648 -.01011241  32822-3 -22172-2 0  9995", "line2": "2 67016  69.9934 309.0119 0004117 266.5433 132.3706 15.97945099  2380"}}, "geometry": {"type": "Point", "coordinates": [147.4887785429195, -44.703718517759434]}}, {"type": "Feature", "properties": {"norad_id": 67017, "name": "STARLINK-35498", "group": "last-30-days", "lat": -48.35942022649153, "lon": 150.53904270969215, "alt_km": 288.74216821818845, "timestamp": "2025-12-18T17:50:13.702824+00:00", "meta": {"OBJECT_NAME": "STARLINK-35498", "OBJECT_ID": "2025-293Q", "EPOCH": "2025-12-17T20:00:01.999872", "MEAN_MOTION": 15.98107102, "ECCENTRICITY": 0.00040069, "INCLINATION": 69.9931, "RA_OF_ASC_NODE": 309.0075, "ARG_OF_PERICENTER": 264.5836, "MEAN_ANOMALY": 138.0394, "EPHEMERIS_TYPE": 0, "CLASSIFICATION_TYPE": "U", "NORAD_CAT_ID": 67017, "ELEMENT_SET_NO": 999, "REV_AT_EPOCH": 227, "BSTAR": -0.0022140094, "MEAN_MOTION_DOT": -0.01018757, "MEAN_MOTION_DDOT": 0.00033332358}, "tle": {"line1": "1 67017U 25293Q   25351.83335648 -.01018757  33332-3 -22140-2 0  9997", "line2": "2 67017  69.9931 309.0075 0004006 264.5836 138.0394 15.98107102  2271"}}, "geometry": {"type": "Point", "coordinates": [150.53904270969215, -48.35942022649153]}}]}